TEVEL2-8                
1 63239U 25052AF  26068.66815442  .00019130  00000+0  69304-3 0  9993
2 63239  97.4055 324.2923 0008031 124.9191 235.2804 15.28392908 54807
STARLINK-34084          
1 63970U 25099U   26068.31320459  .00042448  00000+0  15427-2 0  9991
2 63970  42.9963 177.9147 0000559 254.2506 105.8284 15.27590814 47280
